CYGFM04                 
1 41885U 16078B   25334.78095292  .00063956  00000+0  11186-2 0  9994
2 41885  34.9334 100.3233 0008524  98.1521 262.0167 15.49440680498085
CYGFM02                 
1 41886U 16078C   25334.72483265  .00025242  00000+0  42084-3 0  9998
2 41886  34.9425  99.1725 0010096  96.3258 263.8614 15.50941936498204
CYGFM01                 
1 41887U 16078D   25334.79967612  .00020593  00000+0  38777-3 0  9997
2 41887  34.9409 127.5212 0009188  58.3737 301.7880 15.47534280497857
CYGFM08                 
1 41888U 16078E   25334.80018551  .00022444  00000+0  40525-3 0  9990
2 41888  34.9440 110.6454 0010682  84.8508 275.3432 15.48703146498080
CYGFM07                 
1 41890U 16078G   25334.74237838  .00023518  00000+0  41649-3 0  9998
2 41890  34.9460 100.0691 0008853 103.8704 256.3004 15.49267221498093
CYGFM03                 
1 41891U 16078H   25334.77120911  .00023694  00000+0  42103-3 0  9996
2 41891  34.9415 101.7929 0008236  89.1468 271.0198 15.49175614498074
FENGYUN 3D              
1 43010U 17072A   25334.89802096  .00000123  00000+0  79768-4 0  9990
2 43010  98.9877 301.0319 0000531 238.7797 121.3327 14.19678146416857
NOAA 20 (JPSS-1)        
1 43013U 17073A   25334.79635124  .00000099  00000+0  68046-4 0  9998
2 43013  98.7581 271.2247 0002018 104.1471 255.9929 14.19520519416329
