{
  "type": "FeatureCollection",
  "features": [
    {
      "type": "Feature",
      "properties": {
        "norad_id": 41885,
        "name": "CYGFM04",
        "group": "weather",
        "lat": NaN,
        "lon": NaN,
        "alt_km": NaN,
        "timestamp": "2025-12-01T02:46:55.349382+00:00",
        "meta": {
          "OBJECT_NAME": "CYGFM04",
          "OBJECT_ID": "2016-078B",
          "EPOCH": "2025-11-30T18:44:34.332288",
          "MEAN_MOTION": 15.4944068,
          "ECCENTRICITY": 0.0008524,
          "INCLINATION": 34.9334,
          "RA_OF_ASC_NODE": 100.3233,
          "ARG_OF_PERICENTER": 98.1521,
          "MEAN_ANOMALY": 262.0167,
          "EPHEMERIS_TYPE": 0,
          "CLASSIFICATION_TYPE": "U",
          "NORAD_CAT_ID": 41885,
          "ELEMENT_SET_NO": 999,
          "REV_AT_EPOCH": 49808,
          "BSTAR": 0.0011186,
          "MEAN_MOTION_DOT": 0.00063956,
          "MEAN_MOTION_DDOT": 0
        }
      },
      "geometry": {
        "type": "Point",
        "coordinates": [
          NaN,
          NaN
        ]
      }
    },
    {
      "type": "Feature",
      "properties": {
        "norad_id": 41886,
        "name": "CYGFM02",
        "group": "weather",
        "lat": NaN,
        "lon": NaN,
        "alt_km": NaN,
        "timestamp": "2025-12-01T02:46:55.349415+00:00",
        "meta": {
          "OBJECT_NAME": "CYGFM02",
          "OBJECT_ID": "2016-078C",
          "EPOCH": "2025-11-30T17:23:45.540960",
          "MEAN_MOTION": 15.50941936,
          "ECCENTRICITY": 0.0010096,
          "INCLINATION": 34.9425,
          "RA_OF_ASC_NODE": 99.1725,
          "ARG_OF_PERICENTER": 96.3258,
          "MEAN_ANOMALY": 263.8614,
          "EPHEMERIS_TYPE": 0,
          "CLASSIFICATION_TYPE": "U",
          "NORAD_CAT_ID": 41886,
          "ELEMENT_SET_NO": 999,
          "REV_AT_EPOCH": 49820,
          "BSTAR": 0.00042084,
          "MEAN_MOTION_DOT": 0.00025242,
          "MEAN_MOTION_DDOT": 0
        }
      },
      "geometry": {
        "type": "Point",
        "coordinates": [
          NaN,
          NaN
        ]
      }
    },
    {
      "type": "Feature",
      "properties": {
        "norad_id": 41887,
        "name": "CYGFM01",
        "group": "weather",
        "lat": NaN,
        "lon": NaN,
        "alt_km": NaN,
        "timestamp": "2025-12-01T02:46:55.349436+00:00",
        "meta": {
          "OBJECT_NAME": "CYGFM01",
          "OBJECT_ID": "2016-078D",
          "EPOCH": "2025-11-30T19:11:32.016768",
          "MEAN_MOTION": 15.4753428,
          "ECCENTRICITY": 0.0009188,
          "INCLINATION": 34.9409,
          "RA_OF_ASC_NODE": 127.5212,
          "ARG_OF_PERICENTER": 58.3737,
          "MEAN_ANOMALY": 301.788,
          "EPHEMERIS_TYPE": 0,
          "CLASSIFICATION_TYPE": "U",
          "NORAD_CAT_ID": 41887,
          "ELEMENT_SET_NO": 999,
          "REV_AT_EPOCH": 49785,
          "BSTAR": 0.00038777,
          "MEAN_MOTION_DOT": 0.00020593,
          "MEAN_MOTION_DDOT": 0
        }
      },
      "geometry": {
        "type": "Point",
        "coordinates": [
          NaN,
          NaN
        ]
      }
    },
    {
      "type": "Feature",
      "properties": {
        "norad_id": 41888,
        "name": "CYGFM08",
        "group": "weather",
        "lat": NaN,
        "lon": NaN,
        "alt_km": NaN,
        "timestamp": "2025-12-01T02:46:55.349453+00:00",
        "meta": {
          "OBJECT_NAME": "CYGFM08",
          "OBJECT_ID": "2016-078E",
          "EPOCH": "2025-11-30T19:12:16.028064",
          "MEAN_MOTION": 15.48703146,
          "ECCENTRICITY": 0.0010682,
          "INCLINATION": 34.944,
          "RA_OF_ASC_NODE": 110.6454,
          "ARG_OF_PERICENTER": 84.8508,
          "MEAN_ANOMALY": 275.3432,
          "EPHEMERIS_TYPE": 0,
          "CLASSIFICATION_TYPE": "U",
          "NORAD_CAT_ID": 41888,
          "ELEMENT_SET_NO": 999,
          "REV_AT_EPOCH": 49808,
          "BSTAR": 0.00040525,
          "MEAN_MOTION_DOT": 0.00022444,
          "MEAN_MOTION_DDOT": 0
        }
      },
      "geometry": {
        "type": "Point",
        "coordinates": [
          NaN,
          NaN
        ]
      }
    },
    {
      "type": "Feature",
      "properties": {
        "norad_id": 41890,
        "name": "CYGFM07",
        "group": "weather",
        "lat": NaN,
        "lon": NaN,
        "alt_km": NaN,
        "timestamp": "2025-12-01T02:46:55.349470+00:00",
        "meta": {
          "OBJECT_NAME": "CYGFM07",
          "OBJECT_ID": "2016-078G",
          "EPOCH": "2025-11-30T17:49:01.492032",
          "MEAN_MOTION": 15.49267221,
          "ECCENTRICITY": 0.0008853,
          "INCLINATION": 34.946,
          "RA_OF_ASC_NODE": 100.0691,
          "ARG_OF_PERICENTER": 103.8704,
          "MEAN_ANOMALY": 256.3004,
          "EPHEMERIS_TYPE": 0,
          "CLASSIFICATION_TYPE": "U",
          "NORAD_CAT_ID": 41890,
          "ELEMENT_SET_NO": 999,
          "REV_AT_EPOCH": 49809,
          "BSTAR": 0.00041649,
          "MEAN_MOTION_DOT": 0.00023518,
          "MEAN_MOTION_DDOT": 0
        }
      },
      "geometry": {
        "type": "Point",
        "coordinates": [
          NaN,
          NaN
        ]
      }
    },
    {
      "type": "Feature",
      "properties": {
        "norad_id": 41891,
        "name": "CYGFM03",
        "group": "weather",
        "lat": NaN,
        "lon": NaN,
        "alt_km": NaN,
        "timestamp": "2025-12-01T02:46:55.349487+00:00",
        "meta": {
          "OBJECT_NAME": "CYGFM03",
          "OBJECT_ID": "2016-078H",
          "EPOCH": "2025-11-30T18:30:32.467104",
          "MEAN_MOTION": 15.49175614,
          "ECCENTRICITY": 0.0008236,
          "INCLINATION": 34.9415,
          "RA_OF_ASC_NODE": 101.7929,
          "ARG_OF_PERICENTER": 89.1468,
          "MEAN_ANOMALY": 271.0198,
          "EPHEMERIS_TYPE": 0,
          "CLASSIFICATION_TYPE": "U",
          "NORAD_CAT_ID": 41891,
          "ELEMENT_SET_NO": 999,
          "REV_AT_EPOCH": 49807,
          "BSTAR": 0.00042103,
          "MEAN_MOTION_DOT": 0.00023694,
          "MEAN_MOTION_DDOT": 0
        }
      },
      "geometry": {
        "type": "Point",
        "coordinates": [
          NaN,
          NaN
        ]
      }
    },
    {
      "type": "Feature",
      "properties": {
        "norad_id": 43010,
        "name": "FENGYUN 3D",
        "group": "weather",
        "lat": NaN,
        "lon": NaN,
        "alt_km": NaN,
        "timestamp": "2025-12-01T02:46:55.349504+00:00",
        "meta": {
          "OBJECT_NAME": "FENGYUN 3D",
          "OBJECT_ID": "2017-072A",
          "EPOCH": "2025-11-30T21:33:09.010944",
          "MEAN_MOTION": 14.19678146,
          "ECCENTRICITY": 5.31e-05,
          "INCLINATION": 98.9877,
          "RA_OF_ASC_NODE": 301.0319,
          "ARG_OF_PERICENTER": 238.7797,
          "MEAN_ANOMALY": 121.3327,
          "EPHEMERIS_TYPE": 0,
          "CLASSIFICATION_TYPE": "U",
          "NORAD_CAT_ID": 43010,
          "ELEMENT_SET_NO": 999,
          "REV_AT_EPOCH": 41685,
          "BSTAR": 7.9768e-05,
          "MEAN_MOTION_DOT": 1.23e-06,
          "MEAN_MOTION_DDOT": 0
        }
      },
      "geometry": {
        "type": "Point",
        "coordinates": [
          NaN,
          NaN
        ]
      }
    },
    {
      "type": "Feature",
      "properties": {
        "norad_id": 43013,
        "name": "NOAA 20 (JPSS-1)",
        "group": "weather",
        "lat": NaN,
        "lon": NaN,
        "alt_km": NaN,
        "timestamp": "2025-12-01T02:46:55.349520+00:00",
        "meta": {
          "OBJECT_NAME": "NOAA 20 (JPSS-1)",
          "OBJECT_ID": "2017-073A",
          "EPOCH": "2025-11-30T19:06:44.747136",
          "MEAN_MOTION": 14.19520519,
          "ECCENTRICITY": 0.0002018,
          "INCLINATION": 98.7581,
          "RA_OF_ASC_NODE": 271.2247,
          "ARG_OF_PERICENTER": 104.1471,
          "MEAN_ANOMALY": 255.9929,
          "EPHEMERIS_TYPE": 0,
          "CLASSIFICATION_TYPE": "U",
          "NORAD_CAT_ID": 43013,
          "ELEMENT_SET_NO": 999,
          "REV_AT_EPOCH": 41632,
          "BSTAR": 6.8046e-05,
          "MEAN_MOTION_DOT": 9.9e-07,
          "MEAN_MOTION_DDOT": 0
        }
      },
      "geometry": {
        "type": "Point",
        "coordinates": [
          NaN,
          NaN
        ]
      }
    }
  ]
}